IRIDIUM 33 DEB          
1 39783U 97051AAQ 17345.73363719  .00001480  00000-0  48747-3 0  9997
2 39783  86.1698 146.8275 0068716 170.9924 246.0882 14.36208209184764
